NANOSAT 1B              
1 35685U 09041E   26068.89252635  .00002414  00000+0  23413-3 0  9999
2 35685  98.1028 184.5560 0050708 130.6650 229.8993 14.92717139899605
STARLINK-36239          
1 67196U 25304E   26068.71258283  .00007652  00000+0  64827-3 0  9990
2 67196  70.0020 174.5831 0003184 269.7486  90.3309 14.98335248 13888
